STARLINK-36629          
1 67596U 26018H   26049.55768771  .00091692  00000+0  60862-3 0  9998
2 67596  97.2839 114.3832 0001274  87.7472 272.3939 15.75205749  4299
STARLINK-36384          
1 67597U 26018J   26049.53472651  .00278837  00000+0  14040-2 0  9990
2 67597  97.2842 114.4146 0001357  31.4173 328.7176 15.80915719  4299
STARLINK-36358          
1 67598U 26018K   26049.55168646  .00067985  00000+0  45275-3 0  9994
2 67598  97.2843 114.3919 0001133 114.3362 245.8022 15.75205229  4292
STARLINK-36582          
1 67599U 26018L   26049.58336806  .00003048  00000+0  21301-4 0  9998
2 67599  97.2844 114.4626 0001343  74.0543 193.5915 15.75183840  4380
STARLINK-36640          
1 67600U 26018M   26049.55557147  .00114486  00000+0  75744-3 0  9999
2 67600  97.2842 114.3858 0001056  88.5894 271.5492 15.75213034  4293
STARLINK-36635          
1 67601U 26018N   26049.59519242  .00195902  00000+0  99789-3 0  9995
2 67601  97.2846 114.4861 0001292  62.3139 297.8260 15.80877281  4309
STARLINK-36631          
1 67602U 26018P   26049.59281650  .00116294  00000+0  59914-3 0  9998
2 67602  97.2846 114.4890 0001746  45.3746 314.7665 15.80840232  4305
STARLINK-36626          
1 67603U 26018Q   26049.58336806 -.00087885  00000+0 -59274-3 0  9996
2 67603  97.2845 114.4774 0000684  74.0128 227.5887 15.75256779  4273
STARLINK-36605          
1 67604U 26018R   26049.54781089  .00089384  00000+0  59409-3 0  9994
2 67604  97.2843 114.3968 0000852 123.4185 236.7162 15.75182657  4298
STARLINK-36281          
1 67605U 26018S   26049.59156908  .00228885  00000+0  11613-2 0  9991
2 67605  97.2845 114.4893 0002143  27.2471 332.8910 15.80878094  4307
STARLINK-35843          
1 67606U 26018T   26049.54216178  .00133915  00000+0  88339-3 0  9992
2 67606  97.2842 114.4051 0000819  84.6716 275.4643 15.75224025  4294
STARLINK-36351          
1 67607U 26018U   26049.58336806 -.00006238  00000+0 -40999-4 0  9998
2 67607  97.2847 114.4816 0001066  74.3420 237.3135 15.75181283  4338
