CCSDS_OMM_VERS = 2.0
CREATION_DATE  = 
ORIGINATOR     = 

OBJECT_NAME    = STARLINK-36629
OBJECT_ID      = 2026-018H
CENTER_NAME    = EARTH
REF_FRAME      = TEME
TIME_SYSTEM    = UTC
MEAN_ELEMENT_THEORY = SGP/SGP4

EPOCH          = 2026-02-18T13:23:04.218144
MEAN_MOTION    = 15.75205749
ECCENTRICITY   = .00012743
INCLINATION    = 97.2839
RA_OF_ASC_NODE = 114.3832
ARG_OF_PERICENTER = 87.7472
MEAN_ANOMALY   = 272.3939

EPHEMERIS_TYPE = 0
CLASSIFICATION_TYPE = U
NORAD_CAT_ID   = 67596
ELEMENT_SET_NO = 999
REV_AT_EPOCH   = 429
BSTAR          = .60862285E-3
MEAN_MOTION_DOT = .91692E-3
MEAN_MOTION_DDOT = 0

CCSDS_OMM_VERS = 2.0
CREATION_DATE  = 
ORIGINATOR     = 

OBJECT_NAME    = STARLINK-36384
OBJECT_ID      = 2026-018J
CENTER_NAME    = EARTH
REF_FRAME      = TEME
TIME_SYSTEM    = UTC
MEAN_ELEMENT_THEORY = SGP/SGP4

EPOCH          = 2026-02-18T12:50:00.370464
MEAN_MOTION    = 15.80915719
ECCENTRICITY   = .00013573
INCLINATION    = 97.2842
RA_OF_ASC_NODE = 114.4146
ARG_OF_PERICENTER = 31.4173
MEAN_ANOMALY   = 328.7176

EPHEMERIS_TYPE = 0
CLASSIFICATION_TYPE = U
NORAD_CAT_ID   = 67597
ELEMENT_SET_NO = 999
REV_AT_EPOCH   = 429
BSTAR          = .14040235E-2
MEAN_MOTION_DOT = .278837E-2
MEAN_MOTION_DDOT = 0

CCSDS_OMM_VERS = 2.0
CREATION_DATE  = 
ORIGINATOR     = 

OBJECT_NAME    = STARLINK-36358
OBJECT_ID      = 2026-018K
CENTER_NAME    = EARTH
REF_FRAME      = TEME
TIME_SYSTEM    = UTC
MEAN_ELEMENT_THEORY = SGP/SGP4

EPOCH          = 2026-02-18T13:14:25.710144
MEAN_MOTION    = 15.75205229
ECCENTRICITY   = .00011336
INCLINATION    = 97.2843
RA_OF_ASC_NODE = 114.3919
ARG_OF_PERICENTER = 114.3362
MEAN_ANOMALY   = 245.8022

EPHEMERIS_TYPE = 0
CLASSIFICATION_TYPE = U
NORAD_CAT_ID   = 67598
ELEMENT_SET_NO = 999
REV_AT_EPOCH   = 429
BSTAR          = .45275307E-3
MEAN_MOTION_DOT = .67985E-3
MEAN_MOTION_DDOT = 0

CCSDS_OMM_VERS = 2.0
CREATION_DATE  = 
ORIGINATOR     = 

OBJECT_NAME    = STARLINK-36582
OBJECT_ID      = 2026-018L
CENTER_NAME    = EARTH
REF_FRAME      = TEME
TIME_SYSTEM    = UTC
MEAN_ELEMENT_THEORY = SGP/SGP4

EPOCH          = 2026-02-18T14:00:03.000384
MEAN_MOTION    = 15.75183840
ECCENTRICITY   = .00013431
INCLINATION    = 97.2844
RA_OF_ASC_NODE = 114.4626
ARG_OF_PERICENTER = 74.0543
MEAN_ANOMALY   = 193.5915

EPHEMERIS_TYPE = 0
CLASSIFICATION_TYPE = U
NORAD_CAT_ID   = 67599
ELEMENT_SET_NO = 999
REV_AT_EPOCH   = 438
BSTAR          = .21300662E-4
MEAN_MOTION_DOT = .3048E-4
MEAN_MOTION_DDOT = 0

CCSDS_OMM_VERS = 2.0
CREATION_DATE  = 
ORIGINATOR     = 

OBJECT_NAME    = STARLINK-36640
OBJECT_ID      = 2026-018M
CENTER_NAME    = EARTH
REF_FRAME      = TEME
TIME_SYSTEM    = UTC
MEAN_ELEMENT_THEORY = SGP/SGP4

EPOCH          = 2026-02-18T13:20:01.375008
MEAN_MOTION    = 15.75213034
ECCENTRICITY   = .00010566
INCLINATION    = 97.2842
RA_OF_ASC_NODE = 114.3858
ARG_OF_PERICENTER = 88.5894
MEAN_ANOMALY   = 271.5492

EPHEMERIS_TYPE = 0
CLASSIFICATION_TYPE = U
NORAD_CAT_ID   = 67600
ELEMENT_SET_NO = 999
REV_AT_EPOCH   = 429
BSTAR          = .75744169E-3
MEAN_MOTION_DOT = .114486E-2
MEAN_MOTION_DDOT = 0

CCSDS_OMM_VERS = 2.0
CREATION_DATE  = 
ORIGINATOR     = 

OBJECT_NAME    = STARLINK-36635
OBJECT_ID      = 2026-018N
CENTER_NAME    = EARTH
REF_FRAME      = TEME
TIME_SYSTEM    = UTC
MEAN_ELEMENT_THEORY = SGP/SGP4

EPOCH          = 2026-02-18T14:17:04.625088
MEAN_MOTION    = 15.80877281
ECCENTRICITY   = .00012924
INCLINATION    = 97.2846
RA_OF_ASC_NODE = 114.4861
ARG_OF_PERICENTER = 62.3139
MEAN_ANOMALY   = 297.8260

EPHEMERIS_TYPE = 0
CLASSIFICATION_TYPE = U
NORAD_CAT_ID   = 67601
ELEMENT_SET_NO = 999
REV_AT_EPOCH   = 430
BSTAR          = .99789254E-3
MEAN_MOTION_DOT = .195902E-2
MEAN_MOTION_DDOT = 0

CCSDS_OMM_VERS = 2.0
CREATION_DATE  = 
ORIGINATOR     = 

OBJECT_NAME    = STARLINK-36631
OBJECT_ID      = 2026-018P
CENTER_NAME    = EARTH
REF_FRAME      = TEME
TIME_SYSTEM    = UTC
MEAN_ELEMENT_THEORY = SGP/SGP4

EPOCH          = 2026-02-18T14:13:39.345600
MEAN_MOTION    = 15.80840232
ECCENTRICITY   = .00017464
INCLINATION    = 97.2846
RA_OF_ASC_NODE = 114.4890
ARG_OF_PERICENTER = 45.3746
MEAN_ANOMALY   = 314.7665

EPHEMERIS_TYPE = 0
CLASSIFICATION_TYPE = U
NORAD_CAT_ID   = 67602
ELEMENT_SET_NO = 999
REV_AT_EPOCH   = 430
BSTAR          = .59913589E-3
MEAN_MOTION_DOT = .116294E-2
MEAN_MOTION_DDOT = 0

CCSDS_OMM_VERS = 2.0
CREATION_DATE  = 
ORIGINATOR     = 

OBJECT_NAME    = STARLINK-36626
OBJECT_ID      = 2026-018Q
CENTER_NAME    = EARTH
REF_FRAME      = TEME
TIME_SYSTEM    = UTC
MEAN_ELEMENT_THEORY = SGP/SGP4

EPOCH          = 2026-02-18T14:00:03.000384
MEAN_MOTION    = 15.75256779
ECCENTRICITY   = .00006841
INCLINATION    = 97.2845
RA_OF_ASC_NODE = 114.4774
ARG_OF_PERICENTER = 74.0128
MEAN_ANOMALY   = 227.5887

EPHEMERIS_TYPE = 0
CLASSIFICATION_TYPE = U
NORAD_CAT_ID   = 67603
ELEMENT_SET_NO = 999
REV_AT_EPOCH   = 427
BSTAR          = -.59273506E-3
MEAN_MOTION_DOT = -.87885E-3
MEAN_MOTION_DDOT = 0

CCSDS_OMM_VERS = 2.0
CREATION_DATE  = 
ORIGINATOR     = 

OBJECT_NAME    = STARLINK-36605
OBJECT_ID      = 2026-018R
CENTER_NAME    = EARTH
REF_FRAME      = TEME
TIME_SYSTEM    = UTC
MEAN_ELEMENT_THEORY = SGP/SGP4

EPOCH          = 2026-02-18T13:08:50.860896
MEAN_MOTION    = 15.75182657
ECCENTRICITY   = .00008529
INCLINATION    = 97.2843
RA_OF_ASC_NODE = 114.3968
ARG_OF_PERICENTER = 123.4185
MEAN_ANOMALY   = 236.7162

EPHEMERIS_TYPE = 0
CLASSIFICATION_TYPE = U
NORAD_CAT_ID   = 67604
ELEMENT_SET_NO = 999
REV_AT_EPOCH   = 429
BSTAR          = .59408616E-3
MEAN_MOTION_DOT = .89384E-3
MEAN_MOTION_DDOT = 0

CCSDS_OMM_VERS = 2.0
CREATION_DATE  = 
ORIGINATOR     = 

OBJECT_NAME    = STARLINK-36281
OBJECT_ID      = 2026-018S
CENTER_NAME    = EARTH
REF_FRAME      = TEME
TIME_SYSTEM    = UTC
MEAN_ELEMENT_THEORY = SGP/SGP4

EPOCH          = 2026-02-18T14:11:51.568512
MEAN_MOTION    = 15.80878094
ECCENTRICITY   = .00021435
INCLINATION    = 97.2845
RA_OF_ASC_NODE = 114.4893
ARG_OF_PERICENTER = 27.2471
MEAN_ANOMALY   = 332.8910

EPHEMERIS_TYPE = 0
CLASSIFICATION_TYPE = U
NORAD_CAT_ID   = 67605
ELEMENT_SET_NO = 999
REV_AT_EPOCH   = 430
BSTAR          = .11612669E-2
MEAN_MOTION_DOT = .228885E-2
MEAN_MOTION_DDOT = 0

CCSDS_OMM_VERS = 2.0
CREATION_DATE  = 
ORIGINATOR     = 

OBJECT_NAME    = STARLINK-35843
OBJECT_ID      = 2026-018T
CENTER_NAME    = EARTH
REF_FRAME      = TEME
TIME_SYSTEM    = UTC
MEAN_ELEMENT_THEORY = SGP/SGP4

EPOCH          = 2026-02-18T13:00:42.777792
MEAN_MOTION    = 15.75224025
ECCENTRICITY   = .00008199
INCLINATION    = 97.2842
RA_OF_ASC_NODE = 114.4051
ARG_OF_PERICENTER = 84.6716
MEAN_ANOMALY   = 275.4643

EPHEMERIS_TYPE = 0
CLASSIFICATION_TYPE = U
NORAD_CAT_ID   = 67606
ELEMENT_SET_NO = 999
REV_AT_EPOCH   = 429
BSTAR          = .88339458E-3
MEAN_MOTION_DOT = .133915E-2
MEAN_MOTION_DDOT = 0

CCSDS_OMM_VERS = 2.0
CREATION_DATE  = 
ORIGINATOR     = 

OBJECT_NAME    = STARLINK-36351
OBJECT_ID      = 2026-018U
CENTER_NAME    = EARTH
REF_FRAME      = TEME
TIME_SYSTEM    = UTC
MEAN_ELEMENT_THEORY = SGP/SGP4

EPOCH          = 2026-02-18T14:00:03.000384
MEAN_MOTION    = 15.75181283
ECCENTRICITY   = .00010662
INCLINATION    = 97.2847
RA_OF_ASC_NODE = 114.4816
ARG_OF_PERICENTER = 74.3420
MEAN_ANOMALY   = 237.3135

EPHEMERIS_TYPE = 0
CLASSIFICATION_TYPE = U
NORAD_CAT_ID   = 67607
ELEMENT_SET_NO = 999
REV_AT_EPOCH   = 433
BSTAR          = -.40998888E-4
MEAN_MOTION_DOT = -.6238E-4
MEAN_MOTION_DDOT = 0

